CRRES
1 20712U 90065A   01241.26298451 +.00000769 +00000-0 +12462-2 0 0318
2 20712 017.6543 192.4124 7149503 014.1833 358.2129 02.3920182308815
OutputFile:CRRESS.txt
ISO Start Date/Time:2001-08-30T23:55:00
ISO End   Date/Time:2001-08-30T23:55:00
Cadence in seconds:300
Internal Field Model:IGRF
External Field Model:T89
Kp:4.3
Dst:-20
PitchAngles:18 5 10 15 20 25 30 35 40 45 50 55 60 65 70 75 80 85 90
Footpoint Height:100.0
Colorize:True
Quality:0
